NORAD_CAT_ID,OBJECT_NAME,OBJECT_TYPE,EPOCH,MEAN_MOTION,ECCENTRICITY,INCLINATION,RA_OF_ASC_NODE,ARG_OF_PERICENTER,MEAN_ANOMALY,BSTAR,MEAN_MOTION_DOT,MEAN_MOTION_DDOT,TLE_LINE0,TLE_LINE1,TLE_LINE2,SEMIMAJOR_AXIS,PERIOD,APOGEE,PERIGEE,DECAYED
53397.0,STARLINK-4515,PAYLOAD,2023-06-01 06:49:32,15.08843958,0.0001065,53.2163,348.9799,91.2705,268.8409,0.00013044,1.789e-05,0.0,0 STARLINK-4515,1 53397U 22097K   23152.28440958  .00001789  00000-0  13044-3 0  9990,2 53397  53.2163 348.9799 0001065  91.2705 268.8409 15.08843958 45674,6917.868,95.437,540.47,538.997,0.0
53397.0,STARLINK-4515,PAYLOAD,2023-06-01 22:43:24,15.08842796,0.0001213,53.2167,346.0063,94.8305,265.2826,-2.5845e-06,-3.29e-06,0.0,0 STARLINK-4515,1 53397U 22097K   23152.94680987 -.00000329  00000-0 -25845-5 0  9996,2 53397  53.2167 346.0063 0001213  94.8305 265.2826 15.08842796 45281,6917.872,95.437,540.576,538.898,0.0
53397.0,STARLINK-4515,PAYLOAD,2023-06-02 13:01:53,15.08834562,0.000131,53.217,343.33,96.3238,263.7903,-2.392e-05,-6.68e-06,0.0,0 STARLINK-4515,1 53397U 22097K   23153.54297557 -.00000668  00000-0 -23920-4 0  9997,2 53397  53.2170 343.3300 0001310  96.3238 263.7903 15.08834562 45864,6917.897,95.438,540.668,538.856,0.0
53397.0,STARLINK-4515,PAYLOAD,2023-06-02 19:23:25,15.08839866,0.0001035,53.2172,342.143,81.5555,278.5555,-1.934e-05,-5.96e-06,0.0,0 STARLINK-4515,1 53397U 22097K   23153.80793541 -.00000596  00000-0 -19340-4 0  9991,2 53397  53.2172 342.1430 0001035  81.5555 278.5555 15.08839866 45419,6917.881,95.438,540.462,539.03,0.0
53397.0,STARLINK-4515,PAYLOAD,2023-06-03 12:52:40,15.08834986,0.0001066,53.2175,338.8714,87.0512,273.0602,7.1e-05,8.42e-06,0.0,0 STARLINK-4515,1 53397U 22097K   23154.53657844  .00000842  00000-0  71000-4 0  9990,2 53397  53.2175 338.8714 0001066  87.0512 273.0602 15.08834986 46015,6917.896,95.438,540.498,539.023,0.0
53397.0,STARLINK-4515,PAYLOAD,2023-06-03 19:14:12,15.08841743,0.0001029,53.2172,337.6827,86.0676,274.0433,0.00013227,1.818e-05,0.0,0 STARLINK-4515,1 53397U 22097K   23154.80153387  .00001818  00000-0  13227-3 0  9993,2 53397  53.2172 337.6827 0001029  86.0676 274.0433 15.08841743 46059,6917.875,95.437,540.452,539.028,0.0
53397.0,STARLINK-4515,PAYLOAD,2023-06-04 00:00:21,15.08848706,0.000101,53.2173,336.7901,85.517,274.5938,0.0001146,1.537e-05,0.0,0 STARLINK-4515,1 53397U 22097K   23155.00024984  .00001537  00000-0  11460-3 0  9991,2 53397  53.2173 336.7901 0001010  85.5170 274.5938 15.08848706 45595,6917.854,95.437,540.417,539.02,0.0
53397.0,STARLINK-4515,PAYLOAD,2023-06-04 04:46:32,15.088306,0.0001492,53.2176,335.8964,83.9236,276.1926,6.5009e-05,7.47e-06,0.0,0 STARLINK-4515,1 53397U 22097K   23155.19898501  .00000747  00000-0  65009-4 0  9996,2 53397  53.2176 335.8964 0001492  83.9236 276.1926 15.08830600 45629,6917.909,95.438,540.806,538.742,0.0
53397.0,STARLINK-4515,PAYLOAD,2023-06-04 19:04:59,15.08841903,9.59e-05,53.217,333.2224,84.8542,275.256,0.00017786,2.544e-05,0.0,0 STARLINK-4515,1 53397U 22097K   23155.79513681  .00002544  00000-0  17786-3 0  9990,2 53397  53.2170 333.2224 0000959  84.8542 275.2560 15.08841903 45713,6917.875,95.437,540.403,539.076,0.0
53397.0,STARLINK-4515,PAYLOAD,2023-06-04 22:15:45,15.08847323,9.91e-05,53.2164,332.6271,84.1119,275.9987,0.00023391,3.438e-05,0.0,0 STARLINK-4515,1 53397U 22097K   23155.92761463  .00003438  00000-0  23391-3 0  9990,2 53397  53.2164 332.6271 0000991  84.1119 275.9987 15.08847323 46229,6917.858,95.437,540.409,539.037,0.0
53397.0,STARLINK-4515,PAYLOAD,2023-06-05 06:12:41,15.08839561,0.0001029,53.2164,331.1405,82.0988,278.0121,6.0722e-05,6.79e-06,0.0,0 STARLINK-4515,1 53397U 22097K   23156.25881796  .00000679  00000-0  60722-4 0  9993,2 53397  53.2164 331.1405 0001029  82.0988 278.0121 15.08839561 46270,6917.882,95.438,540.459,539.035,0.0
53397.0,STARLINK-4515,PAYLOAD,2023-06-05 18:55:46,15.08842387,9.94e-05,53.2167,328.7623,79.2136,280.8968,9.4781e-05,1.221e-05,0.0,0 STARLINK-4515,1 53397U 22097K   23156.78873803  .00001221  00000-0  94781-4 0  9997,2 53397  53.2167 328.7623 0000994  79.2136 280.8968 15.08842387 46359,6917.873,95.437,540.426,539.05,0.0
53397.0,STARLINK-4515,PAYLOAD,2023-06-05 22:06:32,15.08847445,9.07e-05,53.2168,328.1653,104.9892,255.1201,0.00012461,1.696e-05,0.0,0 STARLINK-4515,1 53397U 22097K   23156.92121389  .00001696  00000-0  12461-3 0  9998,2 53397  53.2168 328.1653 0000907 104.9892 255.1201 15.08847445 45888,6917.858,95.437,540.35,539.095,0.0
53397.0,STARLINK-4515,PAYLOAD,2023-06-06 04:28:05,15.08843313,8.65e-05,53.2165,326.9749,85.0225,275.0866,6.2252e-05,7.03e-06,0.0,0 STARLINK-4515,1 53397U 22097K   23157.18617640  .00000703  00000-0  62252-4 0  9999,2 53397  53.2165 326.9749 0000865  85.0225 275.0866 15.08843313 46417,6917.87,95.437,540.334,539.137,0.0
53397.0,STARLINK-4515,PAYLOAD,2023-06-06 15:35:47,15.08840971,9.85e-05,53.2166,324.8942,89.8162,270.2943,0.00011022,1.467e-05,0.0,0 STARLINK-4515,1 53397U 22097K   23157.64985824  .00001467  00000-0  11022-3 0  9998,2 53397  53.2166 324.8942 0000985  89.8162 270.2943 15.08840971 45997,6917.877,95.437,540.424,539.061,0.0
53397.0,STARLINK-4515,PAYLOAD,2023-06-07 10:40:25,15.08837059,0.0001162,53.2165,321.3281,78.58,281.5322,9.2729e-05,1.188e-05,0.0,0 STARLINK-4515,1 53397U 22097K   23158.44474263  .00001188  00000-0  92729-4 0  9991,2 53397  53.2165 321.3281 0001162  78.5800 281.5322 15.08837059 46604,6917.889,95.438,540.558,538.951,0.0
53397.0,STARLINK-4515,PAYLOAD,2023-06-07 17:01:58,15.08840283,8.41e-05,53.2169,320.1357,102.429,257.6797,0.00012008,1.624e-05,0.0,0 STARLINK-4515,1 53397U 22097K   23158.70970021  .00001624  00000-0  12008-3 0  9999,2 53397  53.2169 320.1357 0000841 102.4290 257.6797 15.08840283 46155,6917.88,95.438,540.326,539.163,0.0
53397.0,STARLINK-4515,PAYLOAD,2023-06-08 10:31:12,15.08840965,0.0001032,53.2162,316.8669,80.7744,279.3365,0.00014761,2.062e-05,0.0,0 STARLINK-4515,1 53397U 22097K   23159.43834226  .00002062  00000-0  14761-3 0  9991,2 53397  53.2162 316.8669 0001032  80.7744 279.3365 15.08840965 46756,6917.877,95.437,540.456,539.029,0.0
53397.0,STARLINK-4515,PAYLOAD,2023-06-09 10:22:00,15.08833776,0.0001003,53.2167,312.4064,86.4136,273.6971,0.00010644,1.406e-05,0.0,0 STARLINK-4515,1 53397U 22097K   23160.43194589  .00001406  00000-0  10644-3 0  9991,2 53397  53.2167 312.4064 0001003  86.4136 273.6971 15.08833776 46413,6917.899,95.438,540.458,539.071,0.0
53397.0,STARLINK-4515,PAYLOAD,2023-06-09 16:43:32,15.08837176,0.0001079,53.2161,311.2187,78.8574,281.254,8.5155e-05,1.068e-05,0.0,0 STARLINK-4515,1 53397U 22097K   23160.69690435  .00001068  00000-0  85155-4 0  9994,2 53397  53.2161 311.2187 0001079  78.8574 281.2540 15.08837176 46947,6917.889,95.438,540.5,539.008,0.0
53397.0,STARLINK-4515,PAYLOAD,2023-06-10 10:12:47,15.08838607,0.000113,53.2183,307.9476,81.2623,278.8497,0.00012123,1.642e-05,0.0,0 STARLINK-4515,1 53397U 22097K   23161.42554461  .00001642  00000-0  12123-3 0  9996,2 53397  53.2183 307.9476 0001130  81.2623 278.8497 15.08838607 47051,6917.885,95.438,540.531,538.968,0.0
53397.0,STARLINK-4515,PAYLOAD,2023-06-10 13:23:33,15.08838521,0.000129,53.2158,307.3512,87.7051,272.4088,3.5228e-05,2.73e-06,0.0,0 STARLINK-4515,1 53397U 22097K   23161.55802454  .00000273  00000-0  35228-4 0  9999,2 53397  53.2158 307.3512 0001290  87.7051 272.4088 15.08838521 46589,6917.885,95.438,540.642,538.858,0.0
53397.0,STARLINK-4515,PAYLOAD,2023-06-10 19:45:05,15.08847673,9.61e-05,53.217,306.1619,81.2189,278.8912,8.5252e-05,1.07e-05,0.0,0 STARLINK-4515,1 53397U 22097K   23161.82297815  .00001070  00000-0  85252-4 0  9996,2 53397  53.2170 306.1619 0000961  81.2189 278.8912 15.08847673 47117,6917.857,95.437,540.387,539.057,0.0
53397.0,STARLINK-4515,PAYLOAD,2023-06-11 11:38:57,15.08836432,0.000116,53.2168,303.1863,104.2971,255.815,8.7085e-05,1.098e-05,0.0,0 STARLINK-4515,1 53397U 22097K   23162.48538616  .00001098  00000-0  87085-4 0  9992,2 53397  53.2168 303.1863 0001160 104.2971 255.8150 15.08836432 47210,6917.891,95.438,540.559,538.954,0.0
53397.0,STARLINK-4515,PAYLOAD,2023-06-11 16:25:06,15.08842111,0.0001118,53.2167,302.2965,88.9407,271.1713,0.00016841,2.394e-05,0.0,0 STARLINK-4515,1 53397U 22097K   23162.68410192  .00002394  00000-0  16841-3 0  9993,2 53397  53.2167 302.2965 0001118  88.9407 271.1713 15.08842111 46752,6917.874,95.437,540.512,538.966,0.0
53397.0,STARLINK-4515,PAYLOAD,2023-06-11 19:35:52,15.08844932,0.0001085,53.2171,301.7015,84.9931,275.1185,0.0001584,2.234e-05,0.0,0 STARLINK-4515,1 53397U 22097K   23162.81658073  .00002234  00000-0  15840-3 0  9991,2 53397  53.2171 301.7015 0001085  84.9931 275.1185 15.08844932 47265,6917.865,95.437,540.481,538.98,0.0
53397.0,STARLINK-4515,PAYLOAD,2023-06-12 08:18:58,15.08835848,9.69e-05,53.2166,299.3202,98.4983,261.6119,-3.7415e-05,-8.83e-06,0.0,0 STARLINK-4515,1 53397U 22097K   23163.34650539 -.00000883  00000-0 -37415-4 0  9992,2 53397  53.2166 299.3202 0000969  98.4983 261.6119 15.08835848 46853,6917.893,95.438,540.428,539.088,0.0
53397.0,STARLINK-4515,PAYLOAD,2023-06-12 16:15:53,15.08840331,0.0001018,53.2161,297.8361,87.6734,272.4375,2.6721e-05,1.38e-06,0.0,0 STARLINK-4515,1 53397U 22097K   23163.67770274  .00000138  00000-0  26721-4 0  9996,2 53397  53.2161 297.8361 0001018  87.6734 272.4375 15.08840331 47394,6917.879,95.438,540.449,539.04,0.0
53397.0,STARLINK-4515,PAYLOAD,2023-06-13 08:09:45,15.08833619,9.82e-05,53.2175,294.8636,95.6538,264.4566,0.00010336,1.357e-05,0.0,0 STARLINK-4515,1 53397U 22097K   23164.34011097  .00001357  00000-0  10336-3 0  9990,2 53397  53.2175 294.8636 0000982  95.6538 264.4566 15.08833619 47496,6917.9,95.438,540.444,539.086,0.0
53397.0,STARLINK-4515,PAYLOAD,2023-06-13 17:42:03,15.08840236,0.0001003,53.2166,293.0799,90.5265,269.5843,5.4166e-05,5.74e-06,0.0,0 STARLINK-4515,1 53397U 22097K   23164.73754528  .00000574  00000-0  54166-4 0  9996,2 53397  53.2166 293.0799 0001003  90.5265 269.5843 15.08840236 47063,6917.88,95.438,540.439,539.051,0.0
